ORBCOMM-X               
1 21576U 91050C   25170.45710653  .00000267  00000+0  92020-4 0  9993
2 21576  98.3433 237.0097 0003949 160.8088 199.3252 14.43265054782447
ORBCOMM FM02            
1 23546U 95017B   25170.49066363  .00004686  00000+0  48187-3 0  9998
2 23546  69.9647  87.7745 0006597 290.7467  69.2981 14.90972221612509
ORBCOMM FM08            
1 25112U 97084A   25170.25351379  .00001141  00000+0  35870-3 0  9991
2 25112  45.0155 357.9453 0006009 252.2369 107.7827 14.45819590441673
ORBCOMM FM10            
1 25113U 97084B   25170.23493492  .00001160  00000+0  36573-3 0  9995
2 25113  45.0167   0.4184 0004800 215.6798 144.3733 14.45608148616812
ORBCOMM FM11            
1 25114U 97084C   25169.82511067  .00001029  00000+0  33066-3 0  9996
2 25114  45.0151   3.0206 0005538 216.6462 143.4011 14.45355441441717
ORBCOMM FM12            
1 25115U 97084D   25170.61699664  .00000974  00000+0  31503-3 0  9998
2 25115  45.0159 358.9722 0004668 215.7812 144.2727 14.45379475441629
ORBCOMM FM09            
1 25116U 97084E   25170.23477231  .00001108  00000+0  35368-3 0  9994
2 25116  45.0163   1.7404 0006031 205.6209 154.4344 14.45254768441770
